{
  "norad_id": 59656,
  "name": "STARLINK-31912",
  "history": [
    {
      "epoch": "2026-03-28T22:21:58.167936Z",
      "apogee_km": 483.8952124742882,
      "perigee_km": 482.1511055618648,
      "latitude_deg": -1.8490430857823514e-05,
      "longitude_deg": 131.49693248203403,
      "height_km": 482.8566223046987,
      "semi_major_axis_km": 6861.160159018076,
      "eccentricity": 0.0001271,
      "inclination_deg": 42.9997,
      "raan_deg": 293.3346,
      "arg_perigee_deg": 266.2581,
      "mean_anomaly_deg": 93.8125,
      "mean_motion_rev_day": 15.27588662
    }
  ]
}